0 FENGYUN 2F
1 38049U 12002A   13281.86091775 -.00000369  00000-0  10000-3 0  4647
2 38049 001.0491 279.0730 0001908 287.6771 232.8230 01.00267773  6420
0 FENGYUN 2F
1 38049U 12002A   13282.86697280 -.00000372  00000-0  10000-3 0  4656
2 38049 001.0468 279.0942 0001886 287.3429 236.2912 01.00267247  6433
0 FENGYUN 2F
1 38049U 12002A   13283.40819862  .00000000  00000-0  10000-3 0  4667
2 38049 001.0451 279.1083 0001835 287.6382 071.3431 01.00263223  6431
0 FENGYUN 2F
1 38049U 12002A   13283.88727633 -.00000375  00000-0  10000-3 0  4669
2 38049 001.0445 279.1230 0001882 289.6370 242.2619 01.00266674  6440
0 FENGYUN 2F
1 38049U 12002A   13285.66097830 -.00000380  00000-0  10000-3 0  4673
2 38049 001.0408 279.3976 0001659 280.6338 171.2173 01.00264840  6466
0 FENGYUN 2F
1 38049U 12002A   13286.76469697 -.00000382  00000-0  10000-3 0  4682
2 38049 001.0385 279.3916 0001678 280.9054 209.3480 01.00264226  6476
0 FENGYUN 2F
1 38049U 12002A   13287.77842185 -.00000382  00000-0  10000-3 0  4692
2 38049 001.0365 279.3861 0001699 279.1379 217.0315 01.00263656  6486
0 FENGYUN 2F
1 38049U 12002A   13288.78569297 -.00000382  00000-0  10000-3 0  4706
2 38049 001.0344 279.3816 0001717 278.4533 221.3000 01.00263118  6491
0 FENGYUN 2F
1 38049U 12002A   13289.81899933 -.00000380  00000-0  10000-3 0  4713
2 38049 001.0323 279.3785 0001730 280.9773 231.7530 01.00262561  6508
0 FENGYUN 2F
1 38049U 12002A   13290.39036145  .00000000  00000-0  10000-3 0  4736
2 38049 001.0301 279.5972 0002006 290.8505 067.9057 01.00259147  6503
0 FENGYUN 2F
1 38049U 12002A   13290.85483941 -.00000378  00000-0  10000-3 0  4725
2 38049 001.0300 279.3919 0001806 283.9431 242.6612 01.00262038  6512
0 FENGYUN 2F
1 38049U 12002A   13291.86669156 -.00000375  00000-0  10000-3 0  4739
2 38049 001.0278 279.3998 0001851 288.2175 243.6062 01.00261536  6529
0 FENGYUN 2F
1 38049U 12002A   13292.92151550 -.00000373  00000-0  10000-3 0  4740
2 38049 001.0257 279.4067 0001845 288.8739 263.6791 01.00260994  6538
0 FENGYUN 2F
1 38049U 12002A   13294.58563534 -.00000370  00000-0  10000-3 0  4751
2 38049 001.0223 279.3215 0001959 293.9245 139.3752 01.00260331  6553
0 FENGYUN 2F
1 38049U 12002A   13295.71268147 -.00000370  00000-0  10000-3 0  4760
2 38049 001.0186 279.6387 0001663 246.8622 233.0456 01.00284551  6566
